ONEWEB-0683             
1 56719U 23068K   24247.62439457  .00000231  00000+0  57834-3 0  9991
2 56719  87.9077  28.8313 0002053  92.4047 267.7318 13.15546070 63756
ONEWEB-0684             
1 56720U 23068L   24247.63231144  .00000166  00000+0  40723-3 0  9993
2 56720  87.9075  28.9065 0002151 142.2823 217.8459 13.15550050 63582
ONEWEB-0686             
1 56721U 23068M   24247.56973478  .00000103  00000+0  23628-3 0  9995
2 56721  87.9165 358.5776 0001954 104.4442 255.6906 13.16597359 65977
ONEWEB-0694             
1 56722U 23068N   24247.60535378  .00000160  00000+0  38419-3 0  9991
2 56722  87.9163 358.4888 0002237  92.7789 267.3598 13.16599965 66037
ONEWEB-0696             
1 56723U 23068P   24247.43741062  .00000004  00000+0 -24458-4 0  9999
2 56723  87.9073  28.9192 0001506 100.3136 259.8164 13.15550002 63675
ONEWEB-0703             
1 56724U 23068Q   24247.44692848  .00000166  00000+0  40681-3 0  9991
2 56724  87.9072  28.9377 0000691 132.4901 227.6287 13.15546877 63562
ONEWEB-0721             
1 56725U 23068R   24247.59185097  .00003194  00000+0  36214-3 0  9992
2 56725  86.6755 303.2821 0010002   7.5776 352.5598 14.86021547 70156
